<?xml version="1.0" encoding="UTF-8"?>
<ndm xmlns:xsi="http://www.w3.org/2001/XMLSchema-instance" xsi:noNamespaceSchemaLocation="https://sanaregistry.org/r/ndmxml_unqualified/ndmxml-2.0.0-master-2.0.xsd">
<omm id="CCSDS_OMM_VERS" version="2.0">
<header><CREATION_DATE/><ORIGINATOR/></header><body><segment><metadata><OBJECT_NAME>ONEWEB-0435</OBJECT_NAME><OBJECT_ID>2022-012L</OBJECT_ID><CENTER_NAME>EARTH</CENTER_NAME><REF_FRAME>TEME</REF_FRAME><TIME_SYSTEM>UTC</TIME_SYSTEM><MEAN_ELEMENT_THEORY>SGP4</MEAN_ELEMENT_THEORY></metadata><data><meanElements><EPOCH>2024-05-19T14:00:44.843904</EPOCH><MEAN_MOTION>13.10372296</MEAN_MOTION><ECCENTRICITY>.0002374</ECCENTRICITY><INCLINATION>87.8962</INCLINATION><RA_OF_ASC_NODE>187.0726</RA_OF_ASC_NODE><ARG_OF_PERICENTER>105.5395</ARG_OF_PERICENTER><MEAN_ANOMALY>254.5994</MEAN_ANOMALY></meanElements><tleParameters><EPHEMERIS_TYPE>0</EPHEMERIS_TYPE><CLASSIFICATION_TYPE>U</CLASSIFICATION_TYPE><NORAD_CAT_ID>51632</NORAD_CAT_ID><ELEMENT_SET_NO>999</ELEMENT_SET_NO><REV_AT_EPOCH>10996</REV_AT_EPOCH><BSTAR>.18957E-2</BSTAR><MEAN_MOTION_DOT>.674E-5</MEAN_MOTION_DOT><MEAN_MOTION_DDOT>0</MEAN_MOTION_DDOT></tleParameters></data></segment></body></omm>
<omm id="CCSDS_OMM_VERS" version="2.0">
<header><CREATION_DATE/><ORIGINATOR/></header><body><segment><metadata><OBJECT_NAME>ONEWEB-0436</OBJECT_NAME><OBJECT_ID>2022-012M</OBJECT_ID><CENTER_NAME>EARTH</CENTER_NAME><REF_FRAME>TEME</REF_FRAME><TIME_SYSTEM>UTC</TIME_SYSTEM><MEAN_ELEMENT_THEORY>SGP4</MEAN_ELEMENT_THEORY></metadata><data><meanElements><EPOCH>2024-05-19T12:50:05.808480</EPOCH><MEAN_MOTION>13.17649674</MEAN_MOTION><ECCENTRICITY>.000215</ECCENTRICITY><INCLINATION>87.9165</INCLINATION><RA_OF_ASC_NODE>156.8568</RA_OF_ASC_NODE><ARG_OF_PERICENTER>97.9325</ARG_OF_PERICENTER><MEAN_ANOMALY>262.2051</MEAN_ANOMALY></meanElements><tleParameters><EPHEMERIS_TYPE>0</EPHEMERIS_TYPE><CLASSIFICATION_TYPE>U</CLASSIFICATION_TYPE><NORAD_CAT_ID>51633</NORAD_CAT_ID><ELEMENT_SET_NO>999</ELEMENT_SET_NO><REV_AT_EPOCH>11377</REV_AT_EPOCH><BSTAR>.10686E-3</BSTAR><MEAN_MOTION_DOT>.54E-6</MEAN_MOTION_DOT><MEAN_MOTION_DDOT>0</MEAN_MOTION_DDOT></tleParameters></data></segment></body></omm>
<omm id="CCSDS_OMM_VERS" version="2.0">
<header><CREATION_DATE/><ORIGINATOR/></header><body><segment><metadata><OBJECT_NAME>ONEWEB-0438</OBJECT_NAME><OBJECT_ID>2022-012N</OBJECT_ID><CENTER_NAME>EARTH</CENTER_NAME><REF_FRAME>TEME</REF_FRAME><TIME_SYSTEM>UTC</TIME_SYSTEM><MEAN_ELEMENT_THEORY>SGP4</MEAN_ELEMENT_THEORY></metadata><data><meanElements><EPOCH>2024-05-19T13:36:50.205600</EPOCH><MEAN_MOTION>13.10376901</MEAN_MOTION><ECCENTRICITY>.0001886</ECCENTRICITY><INCLINATION>87.8966</INCLINATION><RA_OF_ASC_NODE>187.0764</RA_OF_ASC_NODE><ARG_OF_PERICENTER>96.5623</ARG_OF_PERICENTER><MEAN_ANOMALY>263.5719</MEAN_ANOMALY></meanElements><tleParameters><EPHEMERIS_TYPE>0</EPHEMERIS_TYPE><CLASSIFICATION_TYPE>U</CLASSIFICATION_TYPE><NORAD_CAT_ID>51634</NORAD_CAT_ID><ELEMENT_SET_NO>999</ELEMENT_SET_NO><REV_AT_EPOCH>10999</REV_AT_EPOCH><BSTAR>.10731E-2</BSTAR><MEAN_MOTION_DOT>.387E-5</MEAN_MOTION_DOT><MEAN_MOTION_DDOT>0</MEAN_MOTION_DDOT></tleParameters></data></segment></body></omm>
<omm id="CCSDS_OMM_VERS" version="2.0">
<header><CREATION_DATE/><ORIGINATOR/></header><body><segment><metadata><OBJECT_NAME>ONEWEB-0439</OBJECT_NAME><OBJECT_ID>2022-012P</OBJECT_ID><CENTER_NAME>EARTH</CENTER_NAME><REF_FRAME>TEME</REF_FRAME><TIME_SYSTEM>UTC</TIME_SYSTEM><MEAN_ELEMENT_THEORY>SGP4</MEAN_ELEMENT_THEORY></metadata><data><meanElements><EPOCH>2024-05-19T13:41:37.043232</EPOCH><MEAN_MOTION>13.10377609</MEAN_MOTION><ECCENTRICITY>.0002164</ECCENTRICITY><INCLINATION>87.8967</INCLINATION><RA_OF_ASC_NODE>187.0604</RA_OF_ASC_NODE><ARG_OF_PERICENTER>96.5911</ARG_OF_PERICENTER><MEAN_ANOMALY>263.5463</MEAN_ANOMALY></meanElements><tleParameters><EPHEMERIS_TYPE>0</EPHEMERIS_TYPE><CLASSIFICATION_TYPE>U</CLASSIFICATION_TYPE><NORAD_CAT_ID>51635</NORAD_CAT_ID><ELEMENT_SET_NO>999</ELEMENT_SET_NO><REV_AT_EPOCH>10997</REV_AT_EPOCH><BSTAR>.14218E-2</BSTAR><MEAN_MOTION_DOT>.509E-5</MEAN_MOTION_DOT><MEAN_MOTION_DDOT>0</MEAN_MOTION_DDOT></tleParameters></data></segment></body></omm>
<omm id="CCSDS_OMM_VERS" version="2.0">
<header><CREATION_DATE/><ORIGINATOR/></header><body><segment><metadata><OBJECT_NAME>ONEWEB-0442</OBJECT_NAME><OBJECT_ID>2022-012Q</OBJECT_ID><CENTER_NAME>EARTH</CENTER_NAME><REF_FRAME>TEME</REF_FRAME><TIME_SYSTEM>UTC</TIME_SYSTEM><MEAN_ELEMENT_THEORY>SGP4</MEAN_ELEMENT_THEORY></metadata><data><meanElements><EPOCH>2024-05-19T12:37:34.869792</EPOCH><MEAN_MOTION>13.17650241</MEAN_MOTION><ECCENTRICITY>.0001824</ECCENTRICITY><INCLINATION>87.9168</INCLINATION><RA_OF_ASC_NODE>156.8918</RA_OF_ASC_NODE><ARG_OF_PERICENTER>68.4246</ARG_OF_PERICENTER><MEAN_ANOMALY>291.7080</MEAN_ANOMALY></meanElements><tleParameters><EPHEMERIS_TYPE>0</EPHEMERIS_TYPE><CLASSIFICATION_TYPE>U</CLASSIFICATION_TYPE><NORAD_CAT_ID>51636</NORAD_CAT_ID><ELEMENT_SET_NO>999</ELEMENT_SET_NO><REV_AT_EPOCH>11376</REV_AT_EPOCH><BSTAR>.85261E-5</BSTAR><MEAN_MOTION_DOT>.16E-6</MEAN_MOTION_DOT><MEAN_MOTION_DDOT>0</MEAN_MOTION_DDOT></tleParameters></data></segment></body></omm>
<omm id="CCSDS_OMM_VERS" version="2.0">
<header><CREATION_DATE/><ORIGINATOR/></header><body><segment><metadata><OBJECT_NAME>ONEWEB-0443</OBJECT_NAME><OBJECT_ID>2022-012R</OBJECT_ID><CENTER_NAME>EARTH</CENTER_NAME><REF_FRAME>TEME</REF_FRAME><TIME_SYSTEM>UTC</TIME_SYSTEM><MEAN_ELEMENT_THEORY>SGP4</MEAN_ELEMENT_THEORY></metadata><data><meanElements><EPOCH>2024-05-19T13:06:03.147264</EPOCH><MEAN_MOTION>13.17649470</MEAN_MOTION><ECCENTRICITY>.0002012</ECCENTRICITY><INCLINATION>87.9170</INCLINATION><RA_OF_ASC_NODE>156.8955</RA_OF_ASC_NODE><ARG_OF_PERICENTER>106.0549</ARG_OF_PERICENTER><MEAN_ANOMALY>254.0804</MEAN_ANOMALY></meanElements><tleParameters><EPHEMERIS_TYPE>0</EPHEMERIS_TYPE><CLASSIFICATION_TYPE>U</CLASSIFICATION_TYPE><NORAD_CAT_ID>51637</NORAD_CAT_ID><ELEMENT_SET_NO>999</ELEMENT_SET_NO><REV_AT_EPOCH>11381</REV_AT_EPOCH><BSTAR>.48446E-4</BSTAR><MEAN_MOTION_DOT>.32E-6</MEAN_MOTION_DOT><MEAN_MOTION_DDOT>0</MEAN_MOTION_DDOT></tleParameters></data></segment></body></omm>
<omm id="CCSDS_OMM_VERS" version="2.0">
<header><CREATION_DATE/><ORIGINATOR/></header><body><segment><metadata><OBJECT_NAME>ONEWEB-0444</OBJECT_NAME><OBJECT_ID>2022-012S</OBJECT_ID><CENTER_NAME>EARTH</CENTER_NAME><REF_FRAME>TEME</REF_FRAME><TIME_SYSTEM>UTC</TIME_SYSTEM><MEAN_ELEMENT_THEORY>SGP4</MEAN_ELEMENT_THEORY></metadata><data><meanElements><EPOCH>2024-05-19T13:27:15.026976</EPOCH><MEAN_MOTION>13.10375415</MEAN_MOTION><ECCENTRICITY>.0002154</ECCENTRICITY><INCLINATION>87.8963</INCLINATION><RA_OF_ASC_NODE>187.0857</RA_OF_ASC_NODE><ARG_OF_PERICENTER>102.1525</ARG_OF_PERICENTER><MEAN_ANOMALY>257.9843</MEAN_ANOMALY></meanElements><tleParameters><EPHEMERIS_TYPE>0</EPHEMERIS_TYPE><CLASSIFICATION_TYPE>U</CLASSIFICATION_TYPE><NORAD_CAT_ID>51638</NORAD_CAT_ID><ELEMENT_SET_NO>999</ELEMENT_SET_NO><REV_AT_EPOCH>10998</REV_AT_EPOCH><BSTAR>-.68307E-3</BSTAR><MEAN_MOTION_DOT>-.226E-5</MEAN_MOTION_DOT><MEAN_MOTION_DDOT>0</MEAN_MOTION_DDOT></tleParameters></data></segment></body></omm>
<omm id="CCSDS_OMM_VERS" version="2.0">
<header><CREATION_DATE/><ORIGINATOR/></header><body><segment><metadata><OBJECT_NAME>ONEWEB-0445</OBJECT_NAME><OBJECT_ID>2022-012T</OBJECT_ID><CENTER_NAME>EARTH</CENTER_NAME><REF_FRAME>TEME</REF_FRAME><TIME_SYSTEM>UTC</TIME_SYSTEM><MEAN_ELEMENT_THEORY>SGP4</MEAN_ELEMENT_THEORY></metadata><data><meanElements><EPOCH>2024-05-19T13:58:21.597888</EPOCH><MEAN_MOTION>13.10373240</MEAN_MOTION><ECCENTRICITY>.0002079</ECCENTRICITY><INCLINATION>87.8954</INCLINATION><RA_OF_ASC_NODE>187.0548</RA_OF_ASC_NODE><ARG_OF_PERICENTER>87.7699</ARG_OF_PERICENTER><MEAN_ANOMALY>272.3666</MEAN_ANOMALY></meanElements><tleParameters><EPHEMERIS_TYPE>0</EPHEMERIS_TYPE><CLASSIFICATION_TYPE>U</CLASSIFICATION_TYPE><NORAD_CAT_ID>51639</NORAD_CAT_ID><ELEMENT_SET_NO>999</ELEMENT_SET_NO><REV_AT_EPOCH>10999</REV_AT_EPOCH><BSTAR>.19417E-2</BSTAR><MEAN_MOTION_DOT>.691E-5</MEAN_MOTION_DOT><MEAN_MOTION_DDOT>0</MEAN_MOTION_DDOT></tleParameters></data></segment></body></omm>

</ndm>
