ONEWEB-0435             
1 51632U 22012L   24140.58385236  .00000674  00000+0  18957-2 0  9993
2 51632  87.8962 187.0726 0002374 105.5395 254.5994 13.10372296109961
ONEWEB-0436             
1 51633U 22012M   24140.53478945  .00000054  00000+0  10686-3 0  9993
2 51633  87.9165 156.8568 0002150  97.9325 262.2051 13.17649674113773
ONEWEB-0438             
1 51634U 22012N   24140.56724775  .00000387  00000+0  10731-2 0  9991
2 51634  87.8966 187.0764 0001886  96.5623 263.5719 13.10376901109994
ONEWEB-0439             
1 51635U 22012P   24140.57056763  .00000509  00000+0  14218-2 0  9998
2 51635  87.8967 187.0604 0002164  96.5911 263.5463 13.10377609109979
ONEWEB-0442             
1 51636U 22012Q   24140.52609803  .00000016  00000+0  85261-5 0  9995
2 51636  87.9168 156.8918 0001824  68.4246 291.7080 13.17650241113760
ONEWEB-0443             
1 51637U 22012R   24140.54586976  .00000032  00000+0  48446-4 0  9994
2 51637  87.9170 156.8955 0002012 106.0549 254.0804 13.17649470113814
ONEWEB-0444             
1 51638U 22012S   24140.56059059 -.00000226  00000+0 -68307-3 0  9998
2 51638  87.8963 187.0857 0002154 102.1525 257.9843 13.10375415109985
ONEWEB-0445             
1 51639U 22012T   24140.58219442  .00000691  00000+0  19417-2 0  9996
2 51639  87.8954 187.0548 0002079  87.7699 272.3666 13.10373240109998
